start=new Date('2023-05-20T00:00:00.000Z').valueOf();
sats=[{"INCLINATION":"53.0538","ELEMENT_SET_NO":"999","BSTAR":"0.00008192600000","DECAY_DATE":null,"MEAN_ELEMENT_THEORY":"SGP4","OBJECT_TYPE":"PAYLOAD","NORAD_CAT_ID":"45735","PERIAPSIS":"546.513","TIME_SYSTEM":"UTC","MEAN_MOTION_DOT":"0.00000939","OBJECT_NAME":"STARLINK-1471","OBJECT_ID":"2020-038F","CLASSIFICATION_TYPE":"U","SITE":"AFETR","FILE":"3912278","TLE_LINE2":"2 45735  53.0538 159.5963 0000984  92.2762 267.8340 15.06406301161641","RCS_SIZE":"LARGE","REF_FRAME":"TEME","MEAN_ANOMALY":"267.8340","APOAPSIS":"547.876","REV_AT_EPOCH":"16164","ECCENTRICITY":"0.00009840","MEAN_MOTION":"15.06406301","COUNTRY_CODE":"US","MEAN_MOTION_DDOT":"0.0000000000000","RA_OF_ASC_NODE":"159.5963","PERIOD":"95.592","LAUNCH_DATE":"2020-06-13","EPOCH":"2023-05-19T08:07:16.889088","SEMIMAJOR_AXIS":"6925.329","ARG_OF_PERICENTER":"92.2762","CENTER_NAME":"EARTH","TLE_LINE1":"1 45735U 20038F   23139.33838992  .00000939  00000-0  81926-4 0  9991","GP_ID":"232156782","EPHEMERIS_TYPE":"0"},{"MEAN_MOTION":"15.55554749","MEAN_MOTION_DDOT":"0.0000000000000","COUNTRY_CODE":"US","PERIOD":"92.571","RA_OF_ASC_NODE":"38.8909","SEMIMAJOR_AXIS":"6778.678","LAUNCH_DATE":"2020-06-13","EPOCH":"2023-05-19T21:51:35.828640","ARG_OF_PERICENTER":"50.7009","CENTER_NAME":"EARTH","EPHEMERIS_TYPE":"0","GP_ID":"232157531","TLE_LINE1":"1 45736U 20038G   23139.91083135  .00034019  00000-0  49318-3 0  9991","FILE":"3912278","TLE_LINE2":"2 45736  53.0574  38.8909 0002642  50.7009 309.4235 15.55554749163414","RCS_SIZE":"LARGE","REF_FRAME":"TEME","REV_AT_EPOCH":"16341","MEAN_ANOMALY":"309.4235","APOAPSIS":"402.333","ECCENTRICITY":"0.00026420","TIME_SYSTEM":"UTC","PERIAPSIS":"398.752","MEAN_MOTION_DOT":"0.00034019","OBJECT_ID":"2020-038G","OBJECT_NAME":"STARLINK-1472","CLASSIFICATION_TYPE":"U","SITE":"AFETR","INCLINATION":"53.0574","ELEMENT_SET_NO":"999","BSTAR":"0.00049318000000","MEAN_ELEMENT_THEORY":"SGP4","DECAY_DATE":null,"OBJECT_TYPE":"PAYLOAD","NORAD_CAT_ID":"45736"},{"OBJECT_ID":"2020-038J","OBJECT_NAME":"STARLINK-1474","MEAN_MOTION_DOT":"0.00001873","PERIAPSIS":"546.278","TIME_SYSTEM":"UTC","SITE":"AFETR","CLASSIFICATION_TYPE":"U","ELEMENT_SET_NO":"999","INCLINATION":"53.0527","NORAD_CAT_ID":"45738","OBJECT_TYPE":"PAYLOAD","DECAY_DATE":null,"MEAN_ELEMENT_THEORY":"SGP4","BSTAR":"0.00014456000000","RA_OF_ASC_NODE":"159.6424","PERIOD":"95.592","COUNTRY_CODE":"US","MEAN_MOTION_DDOT":"0.0000000000000","MEAN_MOTION":"15.06404422","TLE_LINE1":"1 45738U 20038J   23139.32733262  .00001873  00000-0  14456-3 0  9998","GP_ID":"232157783","EPHEMERIS_TYPE":"0","CENTER_NAME":"EARTH","ARG_OF_PERICENTER":"91.0270","LAUNCH_DATE":"2020-06-13","EPOCH":"2023-05-19T07:51:21.538368","SEMIMAJOR_AXIS":"6925.335","TLE_LINE2":"2 45738  53.0527 159.6424 0001331  91.0270 269.0871 15.06404422161648","FILE":"3912278","ECCENTRICITY":"0.00013310","MEAN_ANOMALY":"269.0871","APOAPSIS":"548.122","REV_AT_EPOCH":"16164","REF_FRAME":"TEME","RCS_SIZE":"LARGE"},{"FILE":"3912278","TLE_LINE2":"2 45739  53.0539 116.8932 0001251  91.1875 268.9257 15.06393762162296","REF_FRAME":"TEME","RCS_SIZE":"LARGE","ECCENTRICITY":"0.00012510","REV_AT_EPOCH":"16229","APOAPSIS":"548.099","MEAN_ANOMALY":"268.9257","MEAN_MOTION_DDOT":"0.0000000000000","COUNTRY_CODE":"US","MEAN_MOTION":"15.06393762","PERIOD":"95.593","RA_OF_ASC_NODE":"116.8932","EPOCH":"2023-05-19T22:31:04.393056","LAUNCH_DATE":"2020-06-13","SEMIMAJOR_AXIS":"6925.368","EPHEMERIS_TYPE":"0","GP_ID":"232158504","TLE_LINE1":"1 45739U 20038K   23139.93824529  .00000575  00000-0  57494-4 0  9991","CENTER_NAME":"EARTH","ARG_OF_PERICENTER":"91.1875","INCLINATION":"53.0539","ELEMENT_SET_NO":"999","OBJECT_TYPE":"PAYLOAD","DECAY_DATE":null,"MEAN_ELEMENT_THEORY":"SGP4","BSTAR":"0.00005749400000","NORAD_CAT_ID":"45739","MEAN_MOTION_DOT":"0.00000575","TIME_SYSTEM":"UTC","PERIAPSIS":"546.366","OBJECT_NAME":"STARLINK-1475","OBJECT_ID":"2020-038K","CLASSIFICATION_TYPE":"U","SITE":"AFETR"},{"ELEMENT_SET_NO":"999","INCLINATION":"53.0537","NORAD_CAT_ID":"45740","BSTAR":"0.00007845100000","MEAN_ELEMENT_THEORY":"SGP4","DECAY_DATE":null,"OBJECT_TYPE":"PAYLOAD","OBJECT_NAME":"STARLINK-1479","OBJECT_ID":"2020-038L","PERIAPSIS":"546.346","TIME_SYSTEM":"UTC","MEAN_MOTION_DOT":"0.00000888","SITE":"AFETR","CLASSIFICATION_TYPE":"U","TLE_LINE2":"2 45740  53.0537 159.0182 0001219  87.0495 273.0633 15.06407478161663","FILE":"3912278","MEAN_ANOMALY":"273.0633","APOAPSIS":"548.035","REV_AT_EPOCH":"16166","ECCENTRICITY":"0.00012190","RCS_SIZE":"LARGE","REF_FRAME":"TEME","RA_OF_ASC_NODE":"159.0182","PERIOD":"95.592","MEAN_MOTION":"15.06407478","COUNTRY_CODE":"US","MEAN_MOTION_DDOT":"0.0000000000000","CENTER_NAME":"EARTH","ARG_OF_PERICENTER":"87.0495","TLE_LINE1":"1 45740U 20038L   23139.46739173  .00000888  00000-0  78451-4 0  9994","EPHEMERIS_TYPE":"0","GP_ID":"232157282","LAUNCH_DATE":"2020-06-13","SEMIMAJOR_AXIS":"6925.326","EPOCH":"2023-05-19T11:13:02.645472"},{"MEAN_MOTION":"15.06399239","COUNTRY_CODE":"US","MEAN_MOTION_DDOT":"0.0000000000000","RA_OF_ASC_NODE":"157.6657","PERIOD":"95.592","LAUNCH_DATE":"2020-06-13","SEMIMAJOR_AXIS":"6925.351","EPOCH":"2023-05-19T18:28:17.535360","ARG_OF_PERICENTER":"89.0218","CENTER_NAME":"EARTH","TLE_LINE1":"1 45741U 20038M   23139.76964740  .00001673  00000-0  13116-3 0  9997","EPHEMERIS_TYPE":"0","GP_ID":"232157033","FILE":"3912278","TLE_LINE2":"2 45741  53.0540 157.6657 0001045  89.0218 271.0890 15.06399239161726","RCS_SIZE":"LARGE","REF_FRAME":"TEME","MEAN_ANOMALY":"271.0890","APOAPSIS":"547.940","REV_AT_EPOCH":"16172","ECCENTRICITY":"0.00010450","PERIAPSIS":"546.492","TIME_SYSTEM":"UTC","MEAN_MOTION_DOT":"0.00001673","OBJECT_NAME":"STARLINK-1480","OBJECT_ID":"2020-038M","CLASSIFICATION_TYPE":"U","SITE":"AFETR","INCLINATION":"53.0540","ELEMENT_SET_NO":"999","BSTAR":"0.00013116000000","MEAN_ELEMENT_THEORY":"SGP4","DECAY_DATE":null,"OBJECT_TYPE":"PAYLOAD","NORAD_CAT_ID":"45741"},{"MEAN_MOTION":"15.06402217","COUNTRY_CODE":"US","MEAN_MOTION_DDOT":"0.0000000000000","RA_OF_ASC_NODE":"157.6967","PERIOD":"95.592","EPOCH":"2023-05-19T18:17:40.284384","LAUNCH_DATE":"2020-06-13","SEMIMAJOR_AXIS":"6925.342","CENTER_NAME":"EARTH","ARG_OF_PERICENTER":"85.0516","TLE_LINE1":"1 45742U 20038N   23139.76227181  .00000946  00000-0  82390-4 0  9992","GP_ID":"232158282","EPHEMERIS_TYPE":"0","FILE":"3912278","TLE_LINE2":"2 45742  53.0532 157.6967 0001334  85.0516 275.0625 15.06402217161709","RCS_SIZE":"LARGE","REF_FRAME":"TEME","MEAN_ANOMALY":"275.0625","APOAPSIS":"548.131","REV_AT_EPOCH":"16170","ECCENTRICITY":"0.00013340","PERIAPSIS":"546.283","TIME_SYSTEM":"UTC","MEAN_MOTION_DOT":"0.00000946","OBJECT_NAME":"STARLINK-1481","OBJECT_ID":"2020-038N","CLASSIFICATION_TYPE":"U","SITE":"AFETR","INCLINATION":"53.0532","ELEMENT_SET_NO":"999","BSTAR":"0.00008239000000","OBJECT_TYPE":"PAYLOAD","DECAY_DATE":null,"MEAN_ELEMENT_THEORY":"SGP4","NORAD_CAT_ID":"45742"},{"PERIOD":"95.592","RA_OF_ASC_NODE":"157.5402","MEAN_MOTION_DDOT":"0.0000000000000","COUNTRY_CODE":"US","MEAN_MOTION":"15.06401848","EPHEMERIS_TYPE":"0","GP_ID":"232158005","TLE_LINE1":"1 45743U 20038P   23139.77974696  .00000879  00000-0  77873-4 0  9999","CENTER_NAME":"EARTH","ARG_OF_PERICENTER":"86.9816","LAUNCH_DATE":"2020-06-13","EPOCH":"2023-05-19T18:42:50.137344","SEMIMAJOR_AXIS":"6925.343","TLE_LINE2":"2 45743  53.0535 157.5402 0001204  86.9816 273.1311 15.06401848161716","FILE":"3912278","ECCENTRICITY":"0.00012040","REV_AT_EPOCH":"16171","APOAPSIS":"548.042","MEAN_ANOMALY":"273.1311","REF_FRAME":"TEME","RCS_SIZE":"LARGE","OBJECT_ID":"2020-038P","OBJECT_NAME":"STARLINK-1483","MEAN_MOTION_DOT":"0.00000879","TIME_SYSTEM":"UTC","PERIAPSIS":"546.374","SITE":"AFETR","CLASSIFICATION_TYPE":"U","ELEMENT_SET_NO":"999","INCLINATION":"53.0535","NORAD_CAT_ID":"45743","DECAY_DATE":null,"MEAN_ELEMENT_THEORY":"SGP4","OBJECT_TYPE":"PAYLOAD","BSTAR":"0.00007787300000"},{"SITE":"AFETR","CLASSIFICATION_TYPE":"U","OBJECT_NAME":"STARLINK-1500","OBJECT_ID":"2020-038Q","PERIAPSIS":"546.429","TIME_SYSTEM":"UTC","MEAN_MOTION_DOT":"0.00000670","NORAD_CAT_ID":"45744","BSTAR":"0.00006385600000","MEAN_ELEMENT_THEORY":"SGP4","DECAY_DATE":null,"OBJECT_TYPE":"PAYLOAD","ELEMENT_SET_NO":"999","INCLINATION":"53.0536","CENTER_NAME":"EARTH","ARG_OF_PERICENTER":"92.7328","TLE_LINE1":"1 45744U 20038Q   23139.75121191  .00000670  00000-0  63856-4 0  9997","GP_ID":"232156783","EPHEMERIS_TYPE":"0","LAUNCH_DATE":"2020-06-13","EPOCH":"2023-05-19T18:01:44.709024","SEMIMAJOR_AXIS":"6925.341","RA_OF_ASC_NODE":"157.7435","PERIOD":"95.592","MEAN_MOTION":"15.06402309","COUNTRY_CODE":"US","MEAN_MOTION_DDOT":"0.0000000000000","MEAN_ANOMALY":"267.3789","APOAPSIS":"547.984","REV_AT_EPOCH":"16171","ECCENTRICITY":"0.00011220","RCS_SIZE":"LARGE","REF_FRAME":"TEME","TLE_LINE2":"2 45744  53.0536 157.7435 0001122  92.7328 267.3789 15.06402309161715","FILE":"3912278"},{"REV_AT_EPOCH":"16170","MEAN_ANOMALY":"284.1324","APOAPSIS":"548.163","ECCENTRICITY":"0.00013950","RCS_SIZE":"LARGE","REF_FRAME":"TEME","TLE_LINE2":"2 45745  53.0539 157.7906 0001395  75.9820 284.1324 15.06405426161708","FILE":"3912278","CENTER_NAME":"EARTH","ARG_OF_PERICENTER":"75.9820","GP_ID":"232157532","EPHEMERIS_TYPE":"0","TLE_LINE1":"1 45745U 20038R   23139.74015415 -.00001203  00000-0 -61869-4 0  9995","SEMIMAJOR_AXIS":"6925.332","LAUNCH_DATE":"2020-06-13","EPOCH":"2023-05-19T17:45:49.318560","PERIOD":"95.592","RA_OF_ASC_NODE":"157.7906","MEAN_MOTION":"15.06405426","MEAN_MOTION_DDOT":"0.0000000000000","COUNTRY_CODE":"US","NORAD_CAT_ID":"45745","BSTAR":"-0.00006186900000","MEAN_ELEMENT_THEORY":"SGP4","DECAY_DATE":null,"OBJECT_TYPE":"PAYLOAD","ELEMENT_SET_NO":"999","INCLINATION":"53.0539","SITE":"AFETR","CLASSIFICATION_TYPE":"U","OBJECT_NAME":"STARLINK-1503","OBJECT_ID":"2020-038R","TIME_SYSTEM":"UTC","PERIAPSIS":"546.231","MEAN_MOTION_DOT":"-0.00001203"}];
